{
"type": "FeatureCollection",
"name": "electric_depots",
"crs": { "type": "name", "properties": { "name": "urn:ogc:def:crs:OGC:1.3:CRS84" } },
"features": [
{ "type": "Feature", "properties": { "objectid": 19, "id_patio": "PZ001", "nom_patio": "Las Mercedes", "prop_suelo": "Enel Codensa", "servicio": "Zonal (alimentacion)", "compartido": "No", "tip_patio": "Definitivo", "form_tm": "Aval", "rad_av_tm": "2022-EE-11611", "link_av_tm": "No aplica", "direccion": "CL 171 93 95 ", "area_ha": 1.3, "chip": "AAA0141DTDM", "latitud": 4.7657652818253213, "longitud": -74.080088427867466, "link_loc": "https://goo.gl/maps/8v1JbHDKAz9EuG1ZA", "est_ener": "Electrico", "clas_ener": "2", "cap_eq_pad": "98", "cap_eq_bia": "0", "cap_total": 98, "uso_pad_eq": "98", "uso_bia_eq": "0", "uso_total": "98", "ind_ocup": "1.0", "ind_a_bus": "133.0", "comp": "2", "esta_oper": 1, "globalid": "{63BB2E55-9FE7-483B-B274-4F77F8CDA2C9}", "est_ener_norm": "ELECTRICO" }, "geometry": { "type": "Polygon", "coordinates": [ [ [ -74.080309804877828, 4.766424279138151 ], [ -74.08064847007833, 4.766084519670155 ], [ -74.080891736340604, 4.765830897538782 ], [ -74.080396266293178, 4.76529521467779 ], [ -74.080210666796987, 4.765295215432496 ], [ -74.080050053757404, 4.765366600215573 ], [ -74.079881647258347, 4.765487370990903 ], [ -74.079736218263562, 4.76523530409527 ], [ -74.079118055633998, 4.765716771421401 ], [ -74.079329129758804, 4.765960820689566 ], [ -74.079516649779947, 4.76576756980629 ], [ -74.079736961479341, 4.765935696036908 ], [ -74.080309804877828, 4.766424279138151 ] ] ] } },
{ "type": "Feature", "properties": { "objectid": 27, "id_patio": "PZ006", "nom_patio": "Perdomo I", "prop_suelo": "Privado", "servicio": "Zonal (alimentacion - UCE)", "compartido": "No", "tip_patio": "Definitivo", "form_tm": "Aval", "rad_av_tm": "2014-EE-8175", "link_av_tm": "https://gis.transmilenio.gov.co/linkRadicadoAvalTM/PZ006_UF3_-_PERDOMO_I.pdf", "direccion": "KR 61 45 A 72 SUR", "area_ha": 0.9, "chip": null, "latitud": 4.5926637369645338, "longitud": -74.147286521685288, "link_loc": "https://www.google.com/maps/search/parque+verbena/@4.5928644,-74.1477026,128m/data=!3m1!1e3?hl=es", "est_ener": "Diesel-electrico", "clas_ener": "2", "cap_eq_pad": "75", "cap_eq_bia": "0", "cap_total": 38, "uso_pad_eq": "124", "uso_bia_eq": "0", "uso_total": "124", "ind_ocup": "1.65", "ind_a_bus": "121.0", "comp": "2", "esta_oper": 1, "globalid": "{4CAE9973-0DBD-458E-BE04-1D4DC4E17879}", "est_ener_norm": "DIESEL-ELECTRICO" }, "geometry": { "type": "Polygon", "coordinates": [ [ [ -74.147229914464219, 4.592616452906147 ], [ -74.147274705324634, 4.591892637418548 ], [ -74.14702434220375, 4.591878307743057 ], [ -74.147020771294436, 4.591939321023737 ], [ -74.146927779504566, 4.591939330081225 ], [ -74.146773998685461, 4.592057783498421 ], [ -74.14677402935807, 4.592366435557825 ], [ -74.14677762923472, 4.592596131005278 ], [ -74.146874197027302, 4.59259612161825 ], [ -74.146932661076349, 4.592599462782323 ], [ -74.14692428754617, 4.592761209494602 ], [ -74.147149993399239, 4.592764803824907 ], [ -74.147121039520229, 4.593159567159448 ], [ -74.147191047245286, 4.593175203085349 ], [ -74.147793052141807, 4.5933536594233 ], [ -74.147866814045969, 4.593072882709063 ], [ -74.147945334302378, 4.592830176990864 ], [ -74.147517604308263, 4.592705955084591 ], [ -74.147229914464219, 4.592616452906147 ] ] ] } },
{ "type": "Feature", "properties": { "objectid": 32, "id_patio": "PZ040", "nom_patio": "Aeropuerto", "prop_suelo": "Enel Codensa", "servicio": "Zonal (UCE)", "compartido": "No", "tip_patio": "Definitivo", "form_tm": "Aval", "rad_av_tm": "2022-EE-11611", "link_av_tm": "No aplica", "direccion": "KR 100 24D 15", "area_ha": 1.5, "chip": "AAA0078DWHY", "latitud": 4.6832924541423324, "longitud": -74.133603826786555, "link_loc": "https://goo.gl/maps/qR4nS3am35CvcHyt7", "est_ener": "Electrico", "clas_ener": "2", "cap_eq_pad": "126", "cap_eq_bia": "0", "cap_total": 126, "uso_pad_eq": "126", "uso_bia_eq": "0", "uso_total": "126", "ind_ocup": "1.0", "ind_a_bus": "119.0", "comp": "2", "esta_oper": 1, "globalid": "{8A0FDB8E-B19B-4173-A873-F132BF79F83F}", "est_ener_norm": "ELECTRICO" }, "geometry": { "type": "Polygon", "coordinates": [ [ [ -74.134012736102463, 4.684103282558282 ], [ -74.134049434052756, 4.684063532521359 ], [ -74.134053907587557, 4.684067988591825 ], [ -74.134184898150764, 4.683937338871452 ], [ -74.134239210021562, 4.683883163676549 ], [ -74.134510725991959, 4.683612341901105 ], [ -74.134083320371062, 4.683165670816615 ], [ -74.134069805378644, 4.683177628676722 ], [ -74.13396844652604, 4.683267311714656 ], [ -74.133747209154706, 4.683034319982779 ], [ -74.133699357622532, 4.682983925810861 ], [ -74.133652747296608, 4.682934840070339 ], [ -74.133594953566003, 4.682873974796296 ], [ -74.13353013763745, 4.682811188424096 ], [ -74.133509397948828, 4.6827910972538 ], [ -74.133489951731519, 4.682772261159575 ], [ -74.133456896589507, 4.682740240430854 ], [ -74.133421247300177, 4.682705708643077 ], [ -74.13341217318191, 4.68269691768085 ], [ -74.133395969206916, 4.682681221988286 ], [ -74.13337652569966, 4.682662386794862 ], [ -74.133336986996085, 4.682624086155302 ], [ -74.133323767508969, 4.682611793135787 ], [ -74.133309547452185, 4.682597940263618 ], [ -74.133305670647843, 4.682594161467527 ], [ -74.133280108618948, 4.682569256136174 ], [ -74.133233282310684, 4.68252362936378 ], [ -74.133223846746887, 4.682514488460403 ], [ -74.133210596576646, 4.682501653760307 ], [ -74.13315550471728, 4.682448285855257 ], [ -74.132691723283045, 4.682957371435121 ], [ -74.132705773711578, 4.682968947284288 ], [ -74.132821892908424, 4.683068910323034 ], [ -74.132869984325282, 4.683110310283972 ], [ -74.133526537198136, 4.683675509604785 ], [ -74.134012736102463, 4.684103282558282 ] ] ] } },
{ "type": "Feature", "properties": { "objectid": 34, "id_patio": "PZ039", "nom_patio": "El Refugio", "prop_suelo": "Enel Codensa", "servicio": "Zonal (alimentacion)", "compartido": "No", "tip_patio": "Definitivo", "form_tm": "Aval", "rad_av_tm": "2022-EE-11611", "link_av_tm": "No aplica", "direccion": "AK 116 19A 49", "area_ha": 1.2, "chip": "AAA0268FZRU", "latitud": 4.6879233827602116, "longitud": -74.153198515228226, "link_loc": "https://goo.gl/maps/qnRNa2Cgazj8FYnWA", "est_ener": "Electrico", "clas_ener": "2", "cap_eq_pad": "101", "cap_eq_bia": "0", "cap_total": 101, "uso_pad_eq": "101", "uso_bia_eq": "0", "uso_total": "101", "ind_ocup": "1.0", "ind_a_bus": "119.0", "comp": "2", "esta_oper": 1, "globalid": "{133F029E-068E-4B98-B3E7-098D67DDE67A}", "est_ener_norm": "ELECTRICO" }, "geometry": { "type": "Polygon", "coordinates": [ [ [ -74.152545317963373, 4.68808856335257 ], [ -74.152930516673621, 4.68848835805656 ], [ -74.153453223992827, 4.688092247978143 ], [ -74.153831379049834, 4.687798754297751 ], [ -74.153452190818214, 4.687338381644254 ], [ -74.152545317963373, 4.68808856335257 ] ] ] } },
{ "type": "Feature", "properties": { "objectid": 35, "id_patio": "PZ041", "nom_patio": "Usme", "prop_suelo": "Enel Codensa", "servicio": "Zonal (alimentacion)", "compartido": "No", "tip_patio": "Definitivo", "form_tm": "Aval", "rad_av_tm": "2022-EE-11611", "link_av_tm": "No aplica", "direccion": "KR 14 139 64 SUR", "area_ha": 1.7, "chip": "AAA0020ORWW/AAA0137LLHK", "latitud": 4.4672922325392532, "longitud": -74.127651056218696, "link_loc": "https://goo.gl/maps/kxJJKcuWk4Ayu27R8", "est_ener": "Electrico", "clas_ener": "2", "cap_eq_pad": "129", "cap_eq_bia": "0", "cap_total": 129, "uso_pad_eq": "129", "uso_bia_eq": "0", "uso_total": "129", "ind_ocup": "1.0", "ind_a_bus": "132.0", "comp": "2", "esta_oper": 1, "globalid": "{49425FB3-359B-42DF-8CD8-5145FC2AFCD7}", "est_ener_norm": "ELECTRICO" }, "geometry": { "type": "Polygon", "coordinates": [ [ [ -74.128447894658265, 4.467959801581051 ], [ -74.128467984939647, 4.467788774509554 ], [ -74.128476995511321, 4.467648482223665 ], [ -74.128403229264137, 4.467643338186154 ], [ -74.128401789404052, 4.467643237002982 ], [ -74.128381794453986, 4.467641879207277 ], [ -74.128383057340869, 4.467623530588132 ], [ -74.128388371721414, 4.467546241212775 ], [ -74.128483572772694, 4.467552934659877 ], [ -74.12847789990235, 4.467527444250803 ], [ -74.128482319872219, 4.467298292578388 ], [ -74.12848970710742, 4.467254178722017 ], [ -74.128502318365818, 4.467181500839156 ], [ -74.128502408469203, 4.467181500832893 ], [ -74.128356682634887, 4.467079532368066 ], [ -74.128147281808523, 4.466900451991289 ], [ -74.128286979351373, 4.466762062383706 ], [ -74.128344984913042, 4.466705838967744 ], [ -74.128409834480351, 4.466659286710667 ], [ -74.128455769862086, 4.466643378444088 ], [ -74.128428572583246, 4.466531740052063 ], [ -74.128420018198483, 4.466466744882729 ], [ -74.128411274879724, 4.466366618934039 ], [ -74.128359032953853, 4.466379178056018 ], [ -74.128210018078548, 4.46641500283125 ], [ -74.128088543711058, 4.46644420790633 ], [ -74.12809775924525, 4.466453977479455 ], [ -74.128109263569968, 4.46646617407338 ], [ -74.128123096333809, 4.466480840188018 ], [ -74.127982261203556, 4.466506391344743 ], [ -74.127827724035797, 4.466544923939137 ], [ -74.127774837890897, 4.46655810975353 ], [ -74.127599178506856, 4.466607370721373 ], [ -74.12754987133755, 4.466635035247402 ], [ -74.127045634555969, 4.466909053144338 ], [ -74.126961506901281, 4.467313385776666 ], [ -74.126943798564895, 4.467362535535447 ], [ -74.126914161994293, 4.467500839706648 ], [ -74.12686182218296, 4.467843344036864 ], [ -74.126821946698385, 4.467975355771037 ], [ -74.127239465610955, 4.468150027460684 ], [ -74.127579632465611, 4.468322168502701 ], [ -74.127631962434521, 4.468263775177729 ], [ -74.127655028362511, 4.467990060354254 ], [ -74.127390507900273, 4.467762889403288 ], [ -74.127818162592632, 4.46729013634052 ], [ -74.128013167553021, 4.467020311792947 ], [ -74.128225363416902, 4.467134217197318 ], [ -74.128092691182758, 4.46723355712357 ], [ -74.128029912538111, 4.467338866109859 ], [ -74.128062061643234, 4.467447160019739 ], [ -74.128063139258174, 4.46757841298764 ], [ -74.128172836051505, 4.46771491342274 ], [ -74.12827659134922, 4.467810465104779 ], [ -74.128447894658265, 4.467959801581051 ] ] ] } },
{ "type": "Feature", "properties": { "objectid": 45, "id_patio": "PZ047", "nom_patio": "Venecia", "prop_suelo": "ZMP fontibón III S.A.S", "servicio": "Zonal (UCE)", "compartido": "No", "tip_patio": "Definitivo", "form_tm": "Aval", "rad_av_tm": "2022-EE-06774", "link_av_tm": "https://gis.transmilenio.gov.co/linkRadicadoAvalTM/PZ047_UF6_-_FONTIBON_III_-_VENECIA.pdf", "direccion": "AC 31 135B 20", "area_ha": 2.0, "chip": "AAAO140JXBS", "latitud": 4.7009402305574071, "longitud": -74.16421958494503, "link_loc": "https://www.google.com/maps/place/Green+Movil/@4.7004667,-74.1621504,65m/data=!3m1!1e3!4m5!3m4!1s0x8e3f9d961a5184e3:0x3d32655de4fcd8bc!8m2!3d4.7004939!4d-74.1621875", "est_ener": "Electrico", "clas_ener": "2", "cap_eq_pad": "148", "cap_eq_bia": "0", "cap_total": 148, "uso_pad_eq": "148", "uso_bia_eq": "0", "uso_total": "148", "ind_ocup": "1.0", "ind_a_bus": "135.0", "comp": "2", "esta_oper": 1, "globalid": "{B283B0CE-B07F-4252-B3B7-D6D7D92C7AD7}", "est_ener_norm": "ELECTRICO" }, "geometry": { "type": "Polygon", "coordinates": [ [ [ -74.163196798431173, 4.701476922247626 ], [ -74.163738849071791, 4.701872082036464 ], [ -74.163834763588667, 4.701855590059217 ], [ -74.163977562591128, 4.701774530126079 ], [ -74.165474777784738, 4.700336655761373 ], [ -74.16261424058834, 4.700082948483987 ], [ -74.162578720049808, 4.700133159973855 ], [ -74.164017710945018, 4.700258852490522 ], [ -74.164141810596291, 4.7002863253088 ], [ -74.164214879890693, 4.700364580415829 ], [ -74.164211369398572, 4.700489928719235 ], [ -74.163196798431173, 4.701476922247626 ] ] ] } },
{ "type": "Feature", "properties": { "objectid": 46, "id_patio": "PZ049", "nom_patio": "Escritorio IV", "prop_suelo": "Fontibón ZE", "servicio": "Zonal (UCE)", "compartido": "No", "tip_patio": "Definitivo", "form_tm": "Aval", "rad_av_tm": "2022-EE-02106", "link_av_tm": "No aplica", "direccion": "AC 31 135B 20", "area_ha": 2.2, "chip": "AAAO140JXBS", "latitud": 4.6998657363723328, "longitud": -74.164799835676078, "link_loc": "https://www.google.com/maps/place/4%C2%B042'01.7%22N+74%C2%B009'44.1%22W/@4.7004366,-74.1619405,262m/data=!3m1!1e3!4m6!3m5!1s0x0:0x9da9be041be8ac89!7e2!8m2!3d4.7004581!4d-74.162249", "est_ener": "Electrico", "clas_ener": "2", "cap_eq_pad": "144", "cap_eq_bia": "0", "cap_total": 144, "uso_pad_eq": "144", "uso_bia_eq": "0", "uso_total": "144", "ind_ocup": "1.0", "ind_a_bus": "153.0", "comp": "2", "esta_oper": 1, "globalid": "{CD7F5A20-D877-4D93-B22E-7F8AA9A56F3E}", "est_ener_norm": "ELECTRICO" }, "geometry": { "type": "Polygon", "coordinates": [ [ [ -74.16261424058834, 4.700082948483987 ], [ -74.165474777784738, 4.700336655761373 ], [ -74.166366926999459, 4.699520916057068 ], [ -74.164607884897521, 4.699327315152527 ], [ -74.163962747283577, 4.699974029583861 ], [ -74.162770834220495, 4.699868914119326 ], [ -74.16261424058834, 4.700082948483987 ] ] ] } },
{ "type": "Feature", "properties": { "objectid": 47, "id_patio": "PZ052", "nom_patio": "Perdomo", "prop_suelo": "VIP Green Movility", "servicio": "Zonal (UCE)", "compartido": "No", "tip_patio": "Definitivo", "form_tm": "Aval", "rad_av_tm": "2022-EE-15991", "link_av_tm": "No aplica", "direccion": "CL 59A SUR 76A 82", "area_ha": 2.4, "chip": "AAA0018PUZM", "latitud": 4.592632029004255, "longitud": -74.181965192302798, "link_loc": "https://www.google.com/maps/place/Estacion+Gasolina+Texaco/@4.5928449,-74.1809326,262m/data=!3m1!1e3!4m6!3m5!1s0x8e3fa6ab37919f55:0x512d3a6ec9371666!4b1!8m2!3d4.4676796!4d-74.1284436", "est_ener": "Electrico", "clas_ener": "2", "cap_eq_pad": "133", "cap_eq_bia": "0", "cap_total": 133, "uso_pad_eq": "133", "uso_bia_eq": "0", "uso_total": "133", "ind_ocup": "1.0", "ind_a_bus": "180.0", "comp": "2", "esta_oper": 1, "globalid": "{E63BAF83-C472-4827-BFB3-64D67446B792}", "est_ener_norm": "ELECTRICO" }, "geometry": { "type": "Polygon", "coordinates": [ [ [ -74.183009713637858, 4.593398018760724 ], [ -74.182659925315079, 4.59170622446542 ], [ -74.180332816780151, 4.592470041788792 ], [ -74.180960995272955, 4.592826957970562 ], [ -74.181560621484309, 4.593155319646474 ], [ -74.18207458549611, 4.593426577168494 ], [ -74.183009713637858, 4.593398018760724 ] ] ] } },
{ "type": "Feature", "properties": { "objectid": 48, "id_patio": "PZ050", "nom_patio": "Usme II", "prop_suelo": "Usme Ze S.A.S.  ", "servicio": "Zonal (UCE)", "compartido": "No", "tip_patio": "Definitivo", "form_tm": "Aval", "rad_av_tm": "2022-EE-05187", "link_av_tm": "No aplica", "direccion": "CL 137 SUR 1a", "area_ha": 3.9, "chip": "AAA0142ZNZE", "latitud": 4.4708043928922674, "longitud": -74.122109545678811, "link_loc": "https://www.google.com/maps/place/Estacion+Gasolina+Texaco/@4.4710995,-74.1236995,156m/data=!3m1!1e3!4m5!3m4!1s0x8e3fa6ab37919f55:0x512d3a6ec9371666!8m2!3d4.4676796!4d-74.1284436", "est_ener": "Electrico", "clas_ener": "2", "cap_eq_pad": "203", "cap_eq_bia": "0", "cap_total": 203, "uso_pad_eq": "203", "uso_bia_eq": "0", "uso_total": "203", "ind_ocup": "1.0", "ind_a_bus": "192.0", "comp": "2", "esta_oper": 1, "globalid": "{F9A1747F-A25B-4737-B3A3-094EBD7CC114}", "est_ener_norm": "ELECTRICO" }, "geometry": { "type": "Polygon", "coordinates": [ [ [ -74.121380104686423, 4.472052616286252 ], [ -74.121781389829465, 4.471868920531399 ], [ -74.122143578936544, 4.471525910326715 ], [ -74.122510820072208, 4.471231149306518 ], [ -74.122849067888012, 4.470946052493603 ], [ -74.123134163480984, 4.470709275431548 ], [ -74.12318731664196, 4.470665784561655 ], [ -74.123501404735279, 4.470530484954062 ], [ -74.122863558416853, 4.469583389620739 ], [ -74.122114579656156, 4.470061774334464 ], [ -74.121868141294058, 4.470255062010768 ], [ -74.121578214850445, 4.470429019796915 ], [ -74.120800243089974, 4.470931565474645 ], [ -74.121380104686423, 4.472052616286252 ] ] ] } },
{ "type": "Feature", "properties": { "objectid": 49, "id_patio": "PZ048", "nom_patio": "Venecia", "prop_suelo": "ZMP fontibón V S.A.S", "servicio": "Zonal (UCE)", "compartido": "No", "tip_patio": "Definitivo", "form_tm": "Aval", "rad_av_tm": "2022-EE-06010", "link_av_tm": "https://gis.transmilenio.gov.co/linkRadicadoAvalTM/PZ048_UF17_-_FONTIBON_V_-_VENECIA.pdf", "direccion": "AC 31 135B 20", "area_ha": 2.0, "chip": "AAA0140JXBS", "latitud": 4.7006799071985466, "longitud": -74.163169061310299, "link_loc": "https://www.google.com/maps/place/Green+Movil/@4.7004667,-74.1621504,65m/data=!3m1!1e3!4m5!3m4!1s0x8e3f9d961a5184e3:0x3d32655de4fcd8bc!8m2!3d4.7004939!4d-74.1621875", "est_ener": "Electrico", "clas_ener": "2", "cap_eq_pad": "148", "cap_eq_bia": "0", "cap_total": 166, "uso_pad_eq": "148", "uso_bia_eq": "0", "uso_total": "148", "ind_ocup": "1.0", "ind_a_bus": "120.0", "comp": "2", "esta_oper": 1, "globalid": "{37F7A9FD-7A07-4010-8E84-A002BE9FB4BD}", "est_ener_norm": "ELECTRICO" }, "geometry": { "type": "Polygon", "coordinates": [ [ [ -74.163196798431173, 4.701476922247626 ], [ -74.16395740541509, 4.700736989941698 ], [ -74.164211369398572, 4.700489928719235 ], [ -74.16421810877182, 4.700367280276179 ], [ -74.164146115299275, 4.700286111357089 ], [ -74.164017710945018, 4.700258852490522 ], [ -74.162578720049808, 4.700133159973855 ], [ -74.162149938945731, 4.700715615159276 ], [ -74.163196798431173, 4.701476922247626 ] ] ] } }
]
}
